#dP2022  7  4  0  0  0.00000000      96 __u+U ITR00 EXT  IAC
## 2217  86400.00000000   900.00000000 59764 0.0000000000000
+  116   C06C07C08C09C10C11C12C13C14C16C19C20C21C22C23C24C25
+        C26C27C28C29C30C32C33C34C35C36C37C38C39C40C41C42C43
+        C44C45C46E01E02E03E04E05E07E08E09E10E11E12E13E14E15
+        E18E19E21E24E25E26E27E30E31E33E34E36G01G02G03G04G05
+        G06G07G08G09G10G11G12G13G14G15G16G17G18G19G20G21G22
+        G23G24G25G26G27G28G29G30G31G32J02J03R01R02R03R04R05
+        R07R08R09R11R12R13R14R15R17R18R19R20R21R24  0  0  0
++        11 10 10 11  8  7  7 11  9  9  9  9  8  7  8  9  7
++         8 10  9 10  9  6  9  7  7  9  8  8 11 10  7  9  8
++         7  8  9  7  8  7  8  7  8  7  8  8  8  9  7  8  8
++         8  8  7  9  8  9  8  8  7  8  7  8  7  8  7  8  9
++         7  8  8  8  6  7  8  7  7  8  7  7  7  7  8  8  7
++         8  8  8  9  7  8  7  8  7  8 11  9  9  8  9 10  9
++         8  9  9  7  7  8  6  8  8  7  8  9  8  7  0  0  0
%c M  cc GPS ccc cccc cccc cccc cccc ccccc ccccc ccccc ccccc
%c cc cc ccc ccc cccc cccc cccc cccc ccccc ccccc ccccc ccccc
%f  0.0000000  0.000000000  0.00000000000  0.000000000000000
%f  0.0000000  0.000000000  0.00000000000  0.000000000000000
%i    0    0    0    0      0      0      0      0         0
%i    0    0    0    0      0      0      0      0         0
/* IAC                                ULTRA-RAPID PREDICTION
/* S/V CLOCKS ARE ALIGNED TO GNSS TIME                      
/* G:C1WC2W R:C1PC2P E:C1XC5X C:C2IC6I J:C1CC2S             
/* PCV:IGS14_2196 OL/AL:FES2004  NONE     YN ORB:CoN CLK:CoN
*  2022 07 04  6  0  0.00000000
PC06 -15656.381989  26344.146328 -29028.650568    321.216928
PC07  -8410.173810  41039.306634  -3770.327769   -383.140531
PC08   2102.151020  26820.871143  32515.102401    390.016846
PC09  -8762.283366  25678.020332 -32022.057545   -939.001803
PC10  -3480.563472  41701.101276   1897.390979    121.422640
PC11  13910.412522 -16873.966749 -17298.359126    453.410115
PC12  25851.523546 -10417.351003  -1552.737605   -585.064796
PC13   6333.360123  29617.028230  29574.983885     14.037790
PC14   7561.678334 -26451.011408  -4857.975250    526.850884
PC16 -18344.139009  25777.167119 -27823.525549    142.243849
PC19  -1195.075390  27491.937377  -4531.501964   -135.853693
PC20 -11888.504969  22157.602180  12076.964288   -964.289911
PC21  16154.760778  -3133.269361 -22525.534943   -609.518297
PC22  10657.939384  17119.531938 -19274.720403   -962.972534
PC23 -20436.098083 -18870.610246   2260.826367   -940.656954
PC24  13072.494610 -10179.296603  22454.846141   -968.315472
PC25  -6777.686597 -20911.897739  17175.741626   -712.630042
PC26  23170.768162   4524.370168  14897.473164    714.472941
PC27 -26634.961164   4563.904417  -7013.726571    748.867756
PC28 -17289.581348  -8550.286034 -20167.485171     85.977843
PC29  -2304.958774  17291.676628  21769.581108    577.017020
PC30 -20784.924779  15856.843792   9777.445308    500.697414
PC32 -16149.223286   3129.726457  22554.934109   -973.763577
PC33   1067.075830 -27537.240183   4477.180525    -83.528523
PC34  20007.447429 -16222.331288 -10729.002712   -366.580683
PC35  16588.218775   8779.194838  20628.775615    349.949701
PC36   5798.409742  20938.142915 -17483.866285   -972.335072
PC37 -23335.400475  -6086.302738 -14004.944309   -913.401768
PC38  -6490.765900  24057.139351  34065.402487      7.684647
PC39 -22991.133538  26311.900817 -23697.563727     34.986270
PC40 -14610.878753  38749.580316  -7433.769807    -48.499841
PC41 -10521.341823 -17563.816720  19016.240449    -52.427030
PC42  12324.791802 -21463.259514 -12872.646029   -955.581834
PC43   3095.464307 -17544.476604 -21487.836059      0.959105
PC44  26424.701034  -5353.103205   7125.205536    712.898169
PC45  20631.644032  18705.128577  -1931.790641    800.001348
PC46 -11562.609997  11394.342501 -22688.219799   -413.255217
PE01   3081.795960  27638.725326 -10132.973240   -508.478208
PE02  -3201.844260 -27674.612387   9987.743233    309.728838
PE03   6571.598377 -24766.682135  14835.844219   -575.428150
PE04  10577.829108  13775.672901 -23958.614332  -1063.889503
PE05  20201.648001 -21399.719840  -3205.663224   -166.221766
PE07 -21882.170571   5627.846606  19125.342975   -684.353693
PE08 -10662.084630 -13503.709034  24092.579866   -557.643437
PE09  21792.080183  -5827.660846 -19167.896811   -575.577625
PE10  27444.292092   8631.792565   6960.850215   -523.982713
PE11  29311.355980   2251.107208  -3418.211773   3131.947868
PE12  21254.896518  13485.058217  15551.981672    -43.975525
PE13 -29359.057352  -2684.344134   2672.810101    429.622974
PE14  21909.174533  -3295.317646  14514.886495  -1789.232617
PE15 -21173.137639 -13452.245254 -15718.867013    735.419405
PE18 -18633.081483  -8524.348896 -22376.590272  -1254.828572
PE19  -8814.843872  25128.028716 -12913.982036  -5191.550897
PE21 -10070.517257  16467.874910 -22436.018041   -743.903107
PE24  18563.925598   6173.550073  22210.229551   -705.797558
PE25  10255.236402 -16208.776285  22554.118216   -579.858240
PE26 -19486.696980  10140.081514  19833.214871  -1336.693436
PE27 -18383.110816  -4849.270770 -22679.110319   -336.808177
PE30 -15343.700182 -23751.917119  -8741.107792   -644.217992
PE31  15815.353297  23111.757222   9595.235894   -499.346432
PE33    539.144483  16229.588731  24743.433487   -455.040289
PE34   -786.612130 -16259.868057 -24734.405141   -525.353890
PE36  20239.639976  -9581.702025 -19359.882923   -397.226471
PG01 -19431.879313 -13927.788007 -12241.993977    328.323431
PG02  -2188.843983  15260.044145  22279.161946   -651.941083
PG03 -12547.936552 -21260.424288   9831.652801   -297.603057
PG04  -9784.954670 -11653.748731  21775.790921   -149.971944
PG05   5344.184735  25658.952272   3619.230971    -87.853509
PG06 -17381.952528   7913.174746  18552.478663    370.233029
PG07 -26112.579852  -5634.883501  -2091.933461    320.405237
PG08  -2966.560386 -17064.560639 -20073.773007    -74.754388
PG09 -17885.412060  -1381.772692  19532.162714   -322.460818
PG10  13204.177438  -7445.515662 -21633.339297   -479.112230
PG11  -3984.041324  14644.999355  21791.461578    -11.722404
PG12   9441.154045  23802.465471   6996.098507   -241.011846
PG13  -7994.990441  19756.359745 -15890.147892    341.758398
PG14 -14399.737233   5806.013792 -21540.316948   -112.013586
PG15   5401.085012  17185.206462 -19843.745011    -48.186266
PG16   1435.362312 -24886.454339   8201.379136   -513.227214
PG17 -21994.191086  12692.742947  -7439.376777    632.738294
PG18  25892.066946   5557.143847  -2783.316173    123.673852
PG19 -20467.762796  16719.034398    307.024827    179.123706
PG20  -1762.771397  22184.792571  14668.261671    506.111690
PG21 -12028.393023 -15015.564511 -17975.873165    161.228779
PG22  18357.294128 -18792.390014   3612.732770    286.477748
PG23  16103.896793   4371.582968 -20701.165759    -31.294188
PG24  16608.005621  14600.174560 -15308.331237    205.744383
PG25  15838.058084  12911.870881  16823.453419    345.054899
PG26   6850.807994 -19053.316697  16943.696880    216.210862
PG27   9552.257023 -21416.748053 -12297.842793    219.587713
PG28 -10299.479847  15527.569745 -18509.030406    330.348994
PG29  17772.190753   2065.240565  19603.349998   -530.239475
PG30 -23768.947250   2238.391772 -11814.045097   -533.139940
PG31  15718.045478  -9537.080970  19198.299603   -184.363326
PG32  20773.739325 -15291.628216  -5744.718986   -167.270807
PJ02 -20229.919503  23729.668988 -23772.469049     -1.283545
PJ03 -28311.628847  27940.395816  19339.478395     -3.266609
PR01  13036.782173  -8572.382164 -20181.951942     10.934054
PR02  10578.864130 -22725.462711  -4505.596099    523.147835
PR03   1561.560471 -22110.118531  12622.571939     59.598026
PR04  -7841.644130  -9177.344846  22499.534347    149.405135
PR05 -13163.520735   8750.977955  20040.108934     95.677264
PR07  -1245.418706  21841.997854 -13115.206661     37.346397
PR08   7998.701131   9085.089747 -22398.094529    -66.009125
PR09  -3025.422288  12836.923317 -21798.139421     63.926915
PR11  18324.924655  16792.336642   5709.984100     34.336048
PR12  15181.934387   2725.227702  20350.341923     19.161161
PR13   3946.102503 -11715.642636  22302.929316    -24.247165
PR14 -10827.290448 -20463.480893  10749.952530     25.010187
PR15 -18285.747244 -16538.226991  -6531.501595     94.897736
PR17  -2518.816228 -10265.646259 -23213.526275    540.469977
PR18 -18802.109425  -4418.674510 -16682.118008    122.417684
PR19 -25257.675659   2404.089897  -2607.881067   -195.010375
PR20 -16776.468446   9764.586664  16570.630380    -73.901406
PR21   4205.317365   9849.928228  23144.317279   -314.599645
PR24  15863.122015 -10660.754191 -16893.611131    101.849205
EOF
